OBJECT_NAME,OBJECT_ID,EPOCH,MEAN_MOTION,ECCENTRICITY,INCLINATION,RA_OF_ASC_NODE,ARG_OF_PERICENTER,MEAN_ANOMALY,EPHEMERIS_TYPE,CLASSIFICATION_TYPE,NORAD_CAT_ID,ELEMENT_SET_NO,REV_AT_EPOCH,BSTAR,MEAN_MOTION_DOT,MEAN_MOTION_DDOT
HAWK-5A,2022-057AB,2026-07-13T11:32:45.768192,15.52284337,.0003511,97.6616,355.0491,345.3244,14.7905,0,U,52757,999,23042,.18623E-3,.11217E-3,0
HAWK-6B,2023-011A,2026-07-13T09:52:42.695328,15.23143560,.0003943,40.4967,199.0865,231.0284,129.0174,0,U,55324,999,19184,.11057E-3,.2471E-4,0
HAWK-6C,2023-011C,2026-07-13T09:51:48.372192,15.23146024,.0004445,40.4959,195.9257,223.1927,136.8534,0,U,55326,999,19185,.11621E-3,.2607E-4,0
HAWK-6A,2023-011D,2026-07-13T09:51:51.524064,15.23145096,.0003967,40.4967,197.5527,220.6915,139.3598,0,U,55327,999,19185,.11634E-3,.261E-4,0
HAWK-7A,2023-054P,2026-07-13T05:57:46.971648,15.27620219,.0001623,97.2672,80.9236,344.3845,15.7344,0,U,56191,999,18100,.12335E-3,.3258E-4,0
HAWK-7B,2023-054R,2026-07-12T23:40:22.763712,15.27616354,.00015871,97.2698,78.9411,20.8733,339.2571,0,U,56193,999,18096,.12220327E-3,.3227E-4,0
HAWK-7C,2023-054Y,2026-07-13T01:14:31.942176,15.27620878,.0001126,97.2677,79.7659,4.3519,355.7730,0,U,56200,999,18097,.13099151E-3,.3465E-4,0
